{
  "type": "FeatureCollection",
  "features": [
    {
      "type": "Feature",
      "properties": {
        "norad_id": 40236,
        "name": "COSMOS 2251 DEB",
        "group": "cosmos-2251-debris",
        "lat": -63.20236312883654,
        "lon": 121.05184359471424,
        "alt_km": 1268.3565963037936,
        "timestamp": "2025-12-04T09:47:37.918078+00:00",
        "meta_object_name": "COSMOS 2251 DEB",
        "meta_object_id": "1993-036BVR",
        "meta_epoch": "2025-11-24T19:56:56.097312",
        "meta_mean_motion": 13.24604738,
        "meta_eccentricity": 0.0536049,
        "meta_inclination": 73.5357,
        "meta_ra_of_asc_node": 171.9764,
        "meta_arg_of_pericenter": 53.9086,
        "meta_mean_anomaly": 311.0422,
        "meta_ephemeris_type": 0,
        "meta_classification_type": "U",
        "meta_norad_cat_id": 40236,
        "meta_element_set_no": 999,
        "meta_rev_at_epoch": 53387,
        "meta_bstar": 0.0012678,
        "meta_mean_motion_dot": 1.163e-05,
        "meta_mean_motion_ddot": 0,
        "tle_line1": "1 40236U 93036BVR 25328.83120483  .00001163  00000+0  12678-2 0  9991",
        "tle_line2": "2 40236  73.5357 171.9764 0536049  53.9086 311.0422 13.24604738533877"
      },
      "geometry": {
        "type": "Point",
        "coordinates": [
          121.05184359471424,
          -63.20236312883654
        ]
      }
    },
    {
      "type": "Feature",
      "properties": {
        "norad_id": 40238,
        "name": "COSMOS 2251 DEB",
        "group": "cosmos-2251-debris",
        "lat": 15.246834653521308,
        "lon": 80.88114323275806,
        "alt_km": 815.0224690089317,
        "timestamp": "2025-12-04T09:47:37.918088+00:00",
        "meta_object_name": "COSMOS 2251 DEB",
        "meta_object_id": "1993-036BVT",
        "meta_epoch": "2025-12-02T23:17:45.546720",
        "meta_mean_motion": 13.25083413,
        "meta_eccentricity": 0.05497645,
        "meta_inclination": 73.9879,
        "meta_ra_of_asc_node": 78.5988,
        "meta_arg_of_pericenter": 52.4798,
        "meta_mean_anomaly": 312.4962,
        "meta_ephemeris_type": 0,
        "meta_classification_type": "U",
        "meta_norad_cat_id": 40238,
        "meta_element_set_no": 999,
        "meta_rev_at_epoch": 53907,
        "meta_bstar": 0.0016280905,
        "meta_mean_motion_dot": 1.579e-05,
        "meta_mean_motion_ddot": 0,
        "tle_line1": "1 40238U 93036BVT 25336.97066605  .00001579  00000+0  16281-2 0  9997",
        "tle_line2": "2 40238  73.9879  78.5988 0549764  52.4798 312.4962 13.25083413539078"
      },
      "geometry": {
        "type": "Point",
        "coordinates": [
          80.88114323275806,
          15.246834653521308
        ]
      }
    },
    {
      "type": "Feature",
      "properties": {
        "norad_id": 40239,
        "name": "COSMOS 2251 DEB",
        "group": "cosmos-2251-debris",
        "lat": 43.917964726991435,
        "lon": -52.20412095387462,
        "alt_km": 623.2305478847402,
        "timestamp": "2025-12-04T09:47:37.918099+00:00",
        "meta_object_name": "COSMOS 2251 DEB",
        "meta_object_id": "1993-036BVU",
        "meta_epoch": "2025-12-03T04:06:23.351040",
        "meta_mean_motion": 14.61919535,
        "meta_eccentricity": 0.00844774,
        "meta_inclination": 74.0313,
        "meta_ra_of_asc_node": 294.1581,
        "meta_arg_of_pericenter": 48.0204,
        "meta_mean_anomaly": 330.7965,
        "meta_ephemeris_type": 0,
        "meta_classification_type": "U",
        "meta_norad_cat_id": 40239,
        "meta_element_set_no": 999,
        "meta_rev_at_epoch": 59471,
        "meta_bstar": 0.00063426596,
        "meta_mean_motion_dot": 3.31e-05,
        "meta_mean_motion_ddot": 0,
        "tle_line1": "1 40239U 93036BVU 25337.17110360  .00003310  00000+0  63427-3 0  9999",
        "tle_line2": "2 40239  74.0313 294.1581 0084477  48.0204 330.7965 14.61919535594719"
      },
      "geometry": {
        "type": "Point",
        "coordinates": [
          -52.20412095387462,
          43.917964726991435
        ]
      }
    },
    {
      "type": "Feature",
      "properties": {
        "norad_id": 40792,
        "name": "COSMOS 2251 DEB",
        "group": "cosmos-2251-debris",
        "lat": 42.01247494468227,
        "lon": 78.47000334377188,
        "alt_km": 672.3632452927004,
        "timestamp": "2025-12-04T09:47:37.918109+00:00",
        "meta_object_name": "COSMOS 2251 DEB",
        "meta_object_id": "1993-036BVV",
        "meta_epoch": "2025-12-03T22:41:09.153312",
        "meta_mean_motion": 14.67400307,
        "meta_eccentricity": 0.00162419,
        "meta_inclination": 74.0452,
        "meta_ra_of_asc_node": 64.429,
        "meta_arg_of_pericenter": 171.5941,
        "meta_mean_anomaly": 308.7742,
        "meta_ephemeris_type": 0,
        "meta_classification_type": "U",
        "meta_norad_cat_id": 40792,
        "meta_element_set_no": 999,
        "meta_rev_at_epoch": 63055,
        "meta_bstar": 0.0023973164,
        "meta_mean_motion_dot": 0.0001358,
        "meta_mean_motion_ddot": 0,
        "tle_line1": "1 40792U 93036BVV 25337.94524483  .00013580  00000+0  23973-2 0  9994",
        "tle_line2": "2 40792  74.0452  64.4290 0016241 171.5941 308.7742 14.67400307630555"
      },
      "geometry": {
        "type": "Point",
        "coordinates": [
          78.47000334377188,
          42.01247494468227
        ]
      }
    },
    {
      "type": "Feature",
      "properties": {
        "norad_id": 40793,
        "name": "COSMOS 2251 DEB",
        "group": "cosmos-2251-debris",
        "lat": 51.27249062644869,
        "lon": -159.26760998405905,
        "alt_km": 829.9645714461849,
        "timestamp": "2025-12-04T09:47:37.918119+00:00",
        "meta_object_name": "COSMOS 2251 DEB",
        "meta_object_id": "1993-036BVW",
        "meta_epoch": "2025-11-17T22:59:08.433600",
        "meta_mean_motion": 14.0559149,
        "meta_eccentricity": 0.02150611,
        "meta_inclination": 73.9793,
        "meta_ra_of_asc_node": 208.5839,
        "meta_arg_of_pericenter": 10.058,
        "meta_mean_anomaly": 350.4754,
        "meta_ephemeris_type": 0,
        "meta_classification_type": "U",
        "meta_norad_cat_id": 40793,
        "meta_element_set_no": 999,
        "meta_rev_at_epoch": 67897,
        "meta_bstar": 0.0015211732,
        "meta_mean_motion_dot": 3.024e-05,
        "meta_mean_motion_ddot": 0,
        "tle_line1": "1 40793U 93036BVW 25321.95773650  .00003024  00000+0  15212-2 0  9990",
        "tle_line2": "2 40793  73.9793 208.5839 0215061  10.0580 350.4754 14.05591490678970"
      },
      "geometry": {
        "type": "Point",
        "coordinates": [
          -159.26760998405905,
          51.27249062644869
        ]
      }
    },
    {
      "type": "Feature",
      "properties": {
        "norad_id": 40794,
        "name": "COSMOS 2251 DEB",
        "group": "cosmos-2251-debris",
        "lat": 52.10014467806738,
        "lon": 162.70004547959994,
        "alt_km": 594.4032961595613,
        "timestamp": "2025-12-04T09:47:37.918129+00:00",
        "meta_object_name": "COSMOS 2251 DEB",
        "meta_object_id": "1993-036BVX",
        "meta_epoch": "2025-11-30T04:39:36.279360",
        "meta_mean_motion": 14.91253423,
        "meta_eccentricity": 0.00103638,
        "meta_inclination": 73.9758,
        "meta_ra_of_asc_node": 149.5129,
        "meta_arg_of_pericenter": 264.0956,
        "meta_mean_anomaly": 215.1976,
        "meta_ephemeris_type": 0,
        "meta_classification_type": "U",
        "meta_norad_cat_id": 40794,
        "meta_element_set_no": 999,
        "meta_rev_at_epoch": 61737,
        "meta_bstar": 0.0047311798,
        "meta_mean_motion_dot": 0.00047418,
        "meta_mean_motion_ddot": 0,
        "tle_line1": "1 40794U 93036BVX 25334.19416990  .00047418  00000+0  47312-2 0  9993",
        "tle_line2": "2 40794  73.9758 149.5129 0010363 264.0956 215.1976 14.91253423617370"
      },
      "geometry": {
        "type": "Point",
        "coordinates": [
          162.70004547959994,
          52.10014467806738
        ]
      }
    },
    {
      "type": "Feature",
      "properties": {
        "norad_id": 40796,
        "name": "COSMOS 2251 DEB",
        "group": "cosmos-2251-debris",
        "lat": 56.30415611684409,
        "lon": -175.86571982947953,
        "alt_km": 640.297850862069,
        "timestamp": "2025-12-04T09:47:37.918140+00:00",
        "meta_object_name": "COSMOS 2251 DEB",
        "meta_object_id": "1993-036BVZ",
        "meta_epoch": "2025-12-02T06:27:45.283968",
        "meta_mean_motion": 14.81470556,
        "meta_eccentricity": 0.005597,
        "meta_inclination": 74.0116,
        "meta_ra_of_asc_node": 162.895,
        "meta_arg_of_pericenter": 301.3277,
        "meta_mean_anomaly": 235.9171,
        "meta_ephemeris_type": 0,
        "meta_classification_type": "U",
        "meta_norad_cat_id": 40796,
        "meta_element_set_no": 999,
        "meta_rev_at_epoch": 76003,
        "meta_bstar": 0.00090141,
        "meta_mean_motion_dot": 7.227e-05,
        "meta_mean_motion_ddot": 0,
        "tle_line1": "1 40796U 93036BVZ 25336.26927412  .00007227  00000+0  90141-3 0  9994",
        "tle_line2": "2 40796  74.0116 162.8950 0055970 301.3277 235.9171 14.81470556760032"
      },
      "geometry": {
        "type": "Point",
        "coordinates": [
          -175.86571982947953,
          56.30415611684409
        ]
      }
    }
  ]
}